<?xml version="1.0" encoding="UTF-8"?>
<ndm xmlns:xsi="https://www.w3.org/2001/XMLSchema-instance" xsi:noNamespaceSchemaLocation="https://sanaregistry.org/r/ndmxml/ndmxml-1.0-master.xsd">
<omm id="CCSDS_OMM_VERS" version="2.0">
<header><CREATION_DATE/><ORIGINATOR/></header><body><segment><metadata><OBJECT_NAME>STARLINK-1601</OBJECT_NAME><OBJECT_ID>2020-057D</OBJECT_ID><CENTER_NAME>EARTH</CENTER_NAME><REF_FRAME>TEME</REF_FRAME><TIME_SYSTEM>UTC</TIME_SYSTEM><MEAN_ELEMENT_THEORY>SGP4</MEAN_ELEMENT_THEORY></metadata><data><meanElements><EPOCH>2020-09-09T12:00:00.999648</EPOCH><MEAN_MOTION>15.62788903</MEAN_MOTION><ECCENTRICITY>.0001494</ECCENTRICITY><INCLINATION>52.9994</INCLINATION><RA_OF_ASC_NODE>332.7468</RA_OF_ASC_NODE><ARG_OF_PERICENTER>60.0576</ARG_OF_PERICENTER><MEAN_ANOMALY>50.2930</MEAN_ANOMALY></meanElements><tleParameters><EPHEMERIS_TYPE>0</EPHEMERIS_TYPE><CLASSIFICATION_TYPE>U</CLASSIFICATION_TYPE><NORAD_CAT_ID>46120</NORAD_CAT_ID><ELEMENT_SET_NO>999</ELEMENT_SET_NO><REV_AT_EPOCH>412</REV_AT_EPOCH><BSTAR>-.89761E-3</BSTAR><MEAN_MOTION_DOT>-8.2015E-4</MEAN_MOTION_DOT><MEAN_MOTION_DDOT>0</MEAN_MOTION_DDOT></tleParameters></data></segment></body></omm>
<omm id="CCSDS_OMM_VERS" version="2.0">
<header><CREATION_DATE/><ORIGINATOR/></header><body><segment><metadata><OBJECT_NAME>STARLINK-1602</OBJECT_NAME><OBJECT_ID>2020-057E</OBJECT_ID><CENTER_NAME>EARTH</CENTER_NAME><REF_FRAME>TEME</REF_FRAME><TIME_SYSTEM>UTC</TIME_SYSTEM><MEAN_ELEMENT_THEORY>SGP4</MEAN_ELEMENT_THEORY></metadata><data><meanElements><EPOCH>2020-09-09T12:00:00.999648</EPOCH><MEAN_MOTION>15.66238051</MEAN_MOTION><ECCENTRICITY>.0001183</ECCENTRICITY><INCLINATION>52.9983</INCLINATION><RA_OF_ASC_NODE>332.4109</RA_OF_ASC_NODE><ARG_OF_PERICENTER>51.3929</ARG_OF_PERICENTER><MEAN_ANOMALY>222.4922</MEAN_ANOMALY></meanElements><tleParameters><EPHEMERIS_TYPE>0</EPHEMERIS_TYPE><CLASSIFICATION_TYPE>U</CLASSIFICATION_TYPE><NORAD_CAT_ID>46121</NORAD_CAT_ID><ELEMENT_SET_NO>999</ELEMENT_SET_NO><REV_AT_EPOCH>412</REV_AT_EPOCH><BSTAR>-.26401E-4</BSTAR><MEAN_MOTION_DOT>-3.335E-5</MEAN_MOTION_DOT><MEAN_MOTION_DDOT>0</MEAN_MOTION_DDOT></tleParameters></data></segment></body></omm>
<omm id="CCSDS_OMM_VERS" version="2.0">
<header><CREATION_DATE/><ORIGINATOR/></header><body><segment><metadata><OBJECT_NAME>STARLINK-1604</OBJECT_NAME><OBJECT_ID>2020-057F</OBJECT_ID><CENTER_NAME>EARTH</CENTER_NAME><REF_FRAME>TEME</REF_FRAME><TIME_SYSTEM>UTC</TIME_SYSTEM><MEAN_ELEMENT_THEORY>SGP4</MEAN_ELEMENT_THEORY></metadata><data><meanElements><EPOCH>2020-09-09T12:00:00.999648</EPOCH><MEAN_MOTION>15.62720674</MEAN_MOTION><ECCENTRICITY>.0004136</ECCENTRICITY><INCLINATION>53.0001</INCLINATION><RA_OF_ASC_NODE>332.7406</RA_OF_ASC_NODE><ARG_OF_PERICENTER>289.7546</ARG_OF_PERICENTER><MEAN_ANOMALY>183.9161</MEAN_ANOMALY></meanElements><tleParameters><EPHEMERIS_TYPE>0</EPHEMERIS_TYPE><CLASSIFICATION_TYPE>U</CLASSIFICATION_TYPE><NORAD_CAT_ID>46122</NORAD_CAT_ID><ELEMENT_SET_NO>999</ELEMENT_SET_NO><REV_AT_EPOCH>412</REV_AT_EPOCH><BSTAR>-.40913E-5</BSTAR><MEAN_MOTION_DOT>-9.12E-6</MEAN_MOTION_DOT><MEAN_MOTION_DDOT>0</MEAN_MOTION_DDOT></tleParameters></data></segment></body></omm>
<omm id="CCSDS_OMM_VERS" version="2.0">
<header><CREATION_DATE/><ORIGINATOR/></header><body><segment><metadata><OBJECT_NAME>STARLINK-1605</OBJECT_NAME><OBJECT_ID>2020-057G</OBJECT_ID><CENTER_NAME>EARTH</CENTER_NAME><REF_FRAME>TEME</REF_FRAME><TIME_SYSTEM>UTC</TIME_SYSTEM><MEAN_ELEMENT_THEORY>SGP4</MEAN_ELEMENT_THEORY></metadata><data><meanElements><EPOCH>2020-09-09T06:00:00.999648</EPOCH><MEAN_MOTION>15.62804366</MEAN_MOTION><ECCENTRICITY>.0007584</ECCENTRICITY><INCLINATION>53.0005</INCLINATION><RA_OF_ASC_NODE>333.9521</RA_OF_ASC_NODE><ARG_OF_PERICENTER>273.5870</ARG_OF_PERICENTER><MEAN_ANOMALY>237.7477</MEAN_ANOMALY></meanElements><tleParameters><EPHEMERIS_TYPE>0</EPHEMERIS_TYPE><CLASSIFICATION_TYPE>U</CLASSIFICATION_TYPE><NORAD_CAT_ID>46123</NORAD_CAT_ID><ELEMENT_SET_NO>999</ELEMENT_SET_NO><REV_AT_EPOCH>177</REV_AT_EPOCH><BSTAR>-.90449E-3</BSTAR><MEAN_MOTION_DOT>-8.2821E-4</MEAN_MOTION_DOT><MEAN_MOTION_DDOT>0</MEAN_MOTION_DDOT></tleParameters></data></segment></body></omm>
<omm id="CCSDS_OMM_VERS" version="2.0">
<header><CREATION_DATE/><ORIGINATOR/></header><body><segment><metadata><OBJECT_NAME>STARLINK-1614</OBJECT_NAME><OBJECT_ID>2020-057H</OBJECT_ID><CENTER_NAME>EARTH</CENTER_NAME><REF_FRAME>TEME</REF_FRAME><TIME_SYSTEM>UTC</TIME_SYSTEM><MEAN_ELEMENT_THEORY>SGP4</MEAN_ELEMENT_THEORY></metadata><data><meanElements><EPOCH>2020-09-09T12:00:00.999648</EPOCH><MEAN_MOTION>15.62769879</MEAN_MOTION><ECCENTRICITY>.0004367</ECCENTRICITY><INCLINATION>52.9998</INCLINATION><RA_OF_ASC_NODE>332.7340</RA_OF_ASC_NODE><ARG_OF_PERICENTER>282.2291</ARG_OF_PERICENTER><MEAN_ANOMALY>193.8210</MEAN_ANOMALY></meanElements><tleParameters><EPHEMERIS_TYPE>0</EPHEMERIS_TYPE><CLASSIFICATION_TYPE>U</CLASSIFICATION_TYPE><NORAD_CAT_ID>46124</NORAD_CAT_ID><ELEMENT_SET_NO>999</ELEMENT_SET_NO><REV_AT_EPOCH>412</REV_AT_EPOCH><BSTAR>-.55556E-4</BSTAR><MEAN_MOTION_DOT>-5.628E-5</MEAN_MOTION_DOT><MEAN_MOTION_DDOT>0</MEAN_MOTION_DDOT></tleParameters></data></segment></body></omm>
<omm id="CCSDS_OMM_VERS" version="2.0">
<header><CREATION_DATE/><ORIGINATOR/></header><body><segment><metadata><OBJECT_NAME>STARLINK-1618</OBJECT_NAME><OBJECT_ID>2020-057J</OBJECT_ID><CENTER_NAME>EARTH</CENTER_NAME><REF_FRAME>TEME</REF_FRAME><TIME_SYSTEM>UTC</TIME_SYSTEM><MEAN_ELEMENT_THEORY>SGP4</MEAN_ELEMENT_THEORY></metadata><data><meanElements><EPOCH>2020-09-09T12:00:00.999648</EPOCH><MEAN_MOTION>15.62811039</MEAN_MOTION><ECCENTRICITY>.0001438</ECCENTRICITY><INCLINATION>52.9996</INCLINATION><RA_OF_ASC_NODE>332.7532</RA_OF_ASC_NODE><ARG_OF_PERICENTER>47.9620</ARG_OF_PERICENTER><MEAN_ANOMALY>54.6650</MEAN_ANOMALY></meanElements><tleParameters><EPHEMERIS_TYPE>0</EPHEMERIS_TYPE><CLASSIFICATION_TYPE>U</CLASSIFICATION_TYPE><NORAD_CAT_ID>46125</NORAD_CAT_ID><ELEMENT_SET_NO>999</ELEMENT_SET_NO><REV_AT_EPOCH>412</REV_AT_EPOCH><BSTAR>-.66425E-3</BSTAR><MEAN_MOTION_DOT>-6.1039E-4</MEAN_MOTION_DOT><MEAN_MOTION_DDOT>0</MEAN_MOTION_DDOT></tleParameters></data></segment></body></omm>
<omm id="CCSDS_OMM_VERS" version="2.0">
<header><CREATION_DATE/><ORIGINATOR/></header><body><segment><metadata><OBJECT_NAME>STARLINK-1619</OBJECT_NAME><OBJECT_ID>2020-057K</OBJECT_ID><CENTER_NAME>EARTH</CENTER_NAME><REF_FRAME>TEME</REF_FRAME><TIME_SYSTEM>UTC</TIME_SYSTEM><MEAN_ELEMENT_THEORY>SGP4</MEAN_ELEMENT_THEORY></metadata><data><meanElements><EPOCH>2020-09-09T12:00:00.999648</EPOCH><MEAN_MOTION>15.62765476</MEAN_MOTION><ECCENTRICITY>.0001287</ECCENTRICITY><INCLINATION>52.9992</INCLINATION><RA_OF_ASC_NODE>332.7477</RA_OF_ASC_NODE><ARG_OF_PERICENTER>55.4023</ARG_OF_PERICENTER><MEAN_ANOMALY>50.9941</MEAN_ANOMALY></meanElements><tleParameters><EPHEMERIS_TYPE>0</EPHEMERIS_TYPE><CLASSIFICATION_TYPE>U</CLASSIFICATION_TYPE><NORAD_CAT_ID>46126</NORAD_CAT_ID><ELEMENT_SET_NO>999</ELEMENT_SET_NO><REV_AT_EPOCH>412</REV_AT_EPOCH><BSTAR>.10455E-4</BSTAR><MEAN_MOTION_DOT>4.23E-6</MEAN_MOTION_DOT><MEAN_MOTION_DDOT>0</MEAN_MOTION_DDOT></tleParameters></data></segment></body></omm>
<omm id="CCSDS_OMM_VERS" version="2.0">
<header><CREATION_DATE/><ORIGINATOR/></header><body><segment><metadata><OBJECT_NAME>STARLINK-1621</OBJECT_NAME><OBJECT_ID>2020-057L</OBJECT_ID><CENTER_NAME>EARTH</CENTER_NAME><REF_FRAME>TEME</REF_FRAME><TIME_SYSTEM>UTC</TIME_SYSTEM><MEAN_ELEMENT_THEORY>SGP4</MEAN_ELEMENT_THEORY></metadata><data><meanElements><EPOCH>2020-09-09T06:00:00.999648</EPOCH><MEAN_MOTION>15.63874994</MEAN_MOTION><ECCENTRICITY>.0001998</ECCENTRICITY><INCLINATION>52.9996</INCLINATION><RA_OF_ASC_NODE>333.9445</RA_OF_ASC_NODE><ARG_OF_PERICENTER>319.8577</ARG_OF_PERICENTER><MEAN_ANOMALY>192.9744</MEAN_ANOMALY></meanElements><tleParameters><EPHEMERIS_TYPE>0</EPHEMERIS_TYPE><CLASSIFICATION_TYPE>U</CLASSIFICATION_TYPE><NORAD_CAT_ID>46127</NORAD_CAT_ID><ELEMENT_SET_NO>999</ELEMENT_SET_NO><REV_AT_EPOCH>154</REV_AT_EPOCH><BSTAR>.15471E-3</BSTAR><MEAN_MOTION_DOT>1.4287E-4</MEAN_MOTION_DOT><MEAN_MOTION_DDOT>0</MEAN_MOTION_DDOT></tleParameters></data></segment></body></omm>

</ndm>
